OBJECT_NAME,OBJECT_ID,EPOCH,MEAN_MOTION,ECCENTRICITY,INCLINATION,RA_OF_ASC_NODE,ARG_OF_PERICENTER,MEAN_ANOMALY,EPHEMERIS_TYPE,CLASSIFICATION_TYPE,NORAD_CAT_ID,ELEMENT_SET_NO,REV_AT_EPOCH,BSTAR,MEAN_MOTION_DOT,MEAN_MOTION_DDOT
STARLINK-30039,2023-107M,2026-07-12T21:35:09.519936,15.27583342,.0001844,43.0054,349.2146,266.4639,93.6002,0,U,57468,999,16429,.20653363E-4,.306E-5,0
STARLINK-30171,2023-107N,2026-07-12T21:03:00.158688,15.27584044,.00012483,43.0036,352.4578,279.1508,80.9203,0,U,57469,999,16425,.10519704E-3,.2634E-4,0
STARLINK-30186,2023-107P,2026-07-13T14:00:01.000224,15.51500511,.00013375,42.9999,348.2878,284.4051,46.7236,0,U,57470,999,583,.13906458E-2,.84885E-3,0
STARLINK-30204,2023-107R,2026-07-13T11:16:39.779040,15.27583421,.0001086,43.0042,345.7545,221.7954,138.2815,0,U,57472,999,16438,.27613274E-4,.498E-5,0
STARLINK-30155,2023-107U,2026-07-13T10:39:39.130560,15.27583125,.00015886,43.0029,345.5658,272.1628,87.9042,0,U,57475,999,16438,.32261471E-4,.626E-5,0
STARLINK-30161,2023-107V,2026-07-13T10:45:12.211200,15.27581598,.00013785,43.0023,345.5904,255.1864,104.8835,0,U,57476,999,16438,.44779137E-4,.97E-5,0
STARLINK-30176,2023-107W,2026-07-13T10:50:45.333312,15.27594539,.000137,43.0001,345.6158,254.8622,105.2078,0,U,57477,999,16438,.27478973E-3,.731E-4,0
JUPITER 3 (ECHOSTAR 24),2023-108A,2026-07-13T10:55:27.126048,1.00272946,.0001178,0.0124,33.8048,74.3050,251.8897,0,U,57479,999,1090,0,-.154E-5,0
FENGYUN 3F,2023-111A,2026-07-13T14:38:28.866912,14.19943270,.00013037,98.6826,264.1251,76.9941,283.1381,0,U,57490,999,15261,.23679086E-4,.7E-7,0
GALAXY 37 (G-37),2023-112A,2026-07-13T14:34:18.635232,1.00271208,.00017361,0.0209,72.2234,45.1732,265.6549,0,U,57493,999,1080,0,.44E-6,0
STARLINK-30154,2023-113A,2026-07-12T22:43:35.118336,15.27572250,.00016377,43.0038,28.5043,265.0878,94.9787,0,U,57495,999,16267,-.29629405E-4,-.1077E-4,0
STARLINK-30145,2023-113B,2026-07-13T00:00:02.000160,15.27569210,.00015447,43.0009,28.4015,271.7546,302.8226,0,U,57496,999,572,.2722356E-2,.75396E-3,0
STARLINK-30226,2023-113C,2026-07-12T21:35:20.570496,15.27576833,.00012461,42.9979,29.0358,20.3351,339.7550,0,U,57497,999,16272,.53647237E-4,.1214E-4,0
STARLINK-30203,2023-113D,2026-07-13T12:43:35.020416,15.27585591,.00018576,43.0029,25.1584,271.1692,88.8947,0,U,57498,999,16294,-.1399885E-3,-.4113E-4,0
STARLINK-30169,2023-113E,2026-07-13T12:02:02.160096,15.27487155,.00013471,43.0059,11.3702,267.5512,92.5186,0,U,57499,999,16292,.590927E-3,.15988E-3,0
STARLINK-30164,2023-113F,2026-07-13T13:09:28.929600,15.27581832,.00018095,43.0027,25.2842,261.0834,98.9813,0,U,57500,999,16292,.37691052E-4,.775E-5,0
STARLINK-30072,2023-113G,2026-07-12T21:59:23.072064,15.27528565,.00006205,43.0030,29.1272,240.0455,120.0335,0,U,57501,999,16271,.37783256E-3,.10133E-3,0
STARLINK-30230,2023-113J,2026-07-13T13:05:47.040576,15.27576503,.00014173,43.0026,25.2472,269.9604,90.1085,0,U,57503,999,16281,.1389072E-4,.12E-5,0
STARLINK-30213,2023-113K,2026-07-12T22:10:28.504992,15.27579912,.00007762,43.0038,29.1848,268.0851,91.9912,0,U,57504,999,16282,.32224361E-4,.625E-5,0
STARLINK-30227,2023-113L,2026-07-13T12:37:41.570976,15.27698976,.00140396,42.9928,16.3805,273.6527,86.2719,0,U,57505,999,16302,.57049087E-3,.15567E-3,0
STARLINK-30212,2023-113M,2026-07-13T12:22:53.328000,15.27767065,.00021007,43.0054,25.8883,235.5171,124.5483,0,U,57506,999,16275,.53577114E-4,.122E-4,0
STARLINK-30219,2023-113N,2026-07-13T13:01:46.864992,15.32083942,.00037651,43.0017,23.5088,263.4696,96.5728,0,U,57507,999,16294,.86601624E-3,.27223E-3,0
STARLINK-30074,2023-113P,2026-07-12T21:44:36.760128,15.27563452,.0001044,42.9997,29.0605,33.9738,326.1180,0,U,57508,999,16261,-.41554278E-4,-.1405E-4,0
STARLINK-30082,2023-113Q,2026-07-13T12:56:31.756416,15.27586242,.00013648,43.0034,25.2207,262.7735,97.2962,0,U,57509,999,16292,.35043639E-4,.702E-5,0
STARLINK-30153,2023-113R,2026-07-13T12:30:37.832544,15.27581311,.00015552,43.0055,25.1005,266.4614,93.6060,0,U,57510,999,16281,.33967692E-4,.673E-5,0
STARLINK-30147,2023-113S,2026-07-13T12:45:25.665984,15.27583277,.00017562,43.0048,25.1650,269.5771,90.4880,0,U,57511,999,16292,.44151264E-4,.953E-5,0
STARLINK-30157,2023-113T,2026-07-13T12:59:11.860800,15.27553854,.00013164,42.9970,359.5255,239.4744,120.5978,0,U,57512,999,16322,.26236431E-3,.6959E-4,0
STARLINK-30168,2023-113U,2026-07-12T22:32:27.824352,15.27582479,.00015625,43.0044,28.4314,272.3586,87.7087,0,U,57513,999,16267,.67582777E-4,.1598E-4,0
STARLINK-30231,2023-113V,2026-07-13T13:02:05.170560,15.27582385,.00007403,42.9996,25.2413,320.0619,40.0178,0,U,57514,999,16292,.31360536E-4,.601E-5,0
STARLINK-30081,2023-113W,2026-07-12T22:26:54.904416,15.27583019,.00014409,43.0062,28.4384,264.7438,95.3250,0,U,57515,999,16283,.21575925E-4,.332E-5,0
STARLINK-30149,2023-113X,2026-07-13T12:54:40.487040,15.27584294,.00018387,43.0036,25.2120,256.7918,103.2728,0,U,57516,999,16282,.51556729E-4,.1157E-4,0
COSMOS 2569 [GLONASS-K2],2023-114A,2026-07-13T01:30:12.714624,2.13103705,.00097466,65.3169,71.7482,296.0877,63.8841,0,U,57517,999,2281,0,-.12E-6,0
HJ-2F,2023-116A,2026-07-13T14:34:44.195808,15.22681330,.00067573,97.3843,199.3725,319.4475,40.6257,0,U,57519,999,16277,.18363413E-3,.421E-4,0
STARLINK-30259,2023-115A,2026-07-13T12:16:43.713984,15.27585813,.00015722,43.0029,11.0651,260.8311,99.2363,0,U,57521,999,16281,.55666936E-4,.127E-4,0
STARLINK-30256,2023-115B,2026-07-13T12:48:11.328480,15.27576186,.0001508,43.0050,11.2224,256.3391,103.7293,0,U,57522,999,16159,.27058963E-4,.482E-5,0
STARLINK-30261,2023-115C,2026-07-13T14:00:01.000224,15.27589372,.00014671,43.0021,10.8413,270.9607,46.0902,0,U,57523,999,585,-.241866E-3,-.6914E-4,0
STARLINK-30260,2023-115D,2026-07-13T12:11:11.407488,15.27583410,.00012609,43.0030,11.0538,261.5334,98.5375,0,U,57524,999,16159,.38726822E-4,.804E-5,0
STARLINK-30253,2023-115E,2026-07-12T22:20:22.719264,15.27795370,.00020031,43.0028,14.4454,327.7275,32.3454,0,U,57525,999,16150,-.15416907E-2,-.42723E-3,0
STARLINK-30257,2023-115F,2026-07-13T12:22:17.783040,15.27579597,.0001038,43.0012,11.1190,275.4401,84.6333,0,U,57526,999,16159,.32201193E-4,.624E-5,0
STARLINK-30250,2023-115G,2026-07-13T12:33:23.069952,15.27578548,.00008795,43.0010,11.1443,276.3920,83.6832,0,U,57527,999,16249,.1452682E-5,-.222E-5,0
STARLINK-30269,2023-115H,2026-07-13T12:59:18.381408,15.27573826,.00006709,43.0034,11.3061,272.3109,87.7666,0,U,57528,999,16159,-.1028996E-5,-.29E-5,0
STARLINK-30266,2023-115J,2026-07-12T23:17:34.767456,15.27581869,.00015617,43.0039,13.8875,266.7654,93.3019,0,U,57529,999,16151,.18248174E-4,.24E-5,0
STARLINK-30270,2023-115K,2026-07-13T11:39:44.244000,15.27593261,.00002301,43.0000,10.8884,264.6740,95.4085,0,U,57530,999,16159,.55163854E-3,.14955E-3,0
STARLINK-30268,2023-115L,2026-07-13T11:19:35.210784,15.27582317,.00014854,43.0052,11.6381,270.8941,89.1741,0,U,57531,999,16158,.39636381E-4,.829E-5,0
STARLINK-30251,2023-115M,2026-07-13T11:45:17.038656,15.27580877,.00012051,43.0032,10.9068,244.6975,115.3751,0,U,57532,999,16159,.20777093E-4,.31E-5,0
STARLINK-30254,2023-115N,2026-07-13T04:33:27.233856,15.27580983,.0000949,42.9994,114.4053,287.8694,72.2054,0,U,57533,999,16455,.80049E-4,.1941E-4,0
STARLINK-30264,2023-115P,2026-07-13T12:55:14.278080,15.27571630,.00014105,43.0030,218.1668,261.5667,98.5025,0,U,57534,999,16460,.9034198E-5,-.14E-6,0
2023-117C,2023-117C,2026-07-13T14:05:00.798720,15.41786992,.00077937,97.4068,275.9763,138.2358,221.9485,0,U,57582,999,16263,.34869522E-3,.14696E-3,0
2023-117F,2023-117F,2026-07-13T14:51:52.252992,15.46146699,.00074425,97.4199,281.2670,127.4614,232.7313,0,U,57585,999,16293,.27146073E-3,.13235E-3,0
STARLINK-30166,2023-119A,2026-07-13T00:02:17.672352,15.27577991,.00014552,43.0001,93.6807,255.8239,104.2451,0,U,57602,999,16219,.48558776E-4,.1074E-4,0
STARLINK-30223,2023-119B,2026-07-12T22:41:36.822912,15.11911166,.00072124,42.9995,113.6997,169.3487,190.7512,0,U,57603,999,16200,.75251606E-2,.133475E-2,0
STARLINK-30218,2023-119C,2026-07-12T22:59:35.653920,15.27576881,.00013424,43.0029,94.2158,274.5813,85.4885,0,U,57604,999,16224,-.12134638E-4,-.596E-5,0
STARLINK-30138,2023-119D,2026-07-12T23:05:08.595456,15.27579051,.0001231,43.0038,94.2430,270.2027,89.8684,0,U,57605,999,16224,.8436792E-5,-.3E-6,0
STARLINK-30255,2023-119E,2026-07-13T00:09:41.697504,15.27566984,.00012236,43.0019,93.7158,270.3323,89.7389,0,U,57606,999,16225,.26967103E-3,.7163E-4,0
STARLINK-30252,2023-119F,2026-07-12T01:31:35.816736,15.27573604,.00011896,43.0037,84.2427,267.7221,92.3494,0,U,57607,999,16228,-.11977512E-4,-.592E-5,0
STARLINK-30258,2023-119G,2026-07-12T03:12:34.283232,15.27574672,.00011536,43.0040,99.1949,267.4298,92.6422,0,U,57608,999,16211,.14753896E-4,.144E-5,0
STARLINK-30174,2023-119H,2026-07-12T03:28:56.084448,15.27599947,.0002514,43.0060,98.4252,224.2001,135.8650,0,U,57609,999,16212,-.31274646E-3,-.8864E-4,0
STARLINK-30248,2023-119J,2026-07-12T23:43:47.536032,15.27598260,.00015911,43.0032,93.5791,239.9286,120.1409,0,U,57610,999,16225,.98683552E-4,.2456E-4,0
STARLINK-30052,2023-119K,2026-07-13T01:32:44.833920,15.27581416,.00014262,43.0018,93.2879,266.5350,93.5339,0,U,57611,999,16224,.61659363E-4,.1435E-4,0
STARLINK-30245,2023-119L,2026-07-12T23:45:38.217888,15.27579014,.00025001,43.0085,93.5835,254.9910,105.0665,0,U,57612,999,16225,.48623453E-4,.1076E-4,0
STARLINK-30041,2023-119M,2026-07-13T00:00:26.387424,15.27581115,.00014199,43.0022,93.6616,271.4095,88.6594,0,U,57613,999,16225,.2951786E-5,-.181E-5,0
STARLINK-30244,2023-119N,2026-07-13T03:19:52.727808,15.27576572,.00000307,42.9994,92.9807,157.3016,202.7837,0,U,57614,999,16227,.69985381E-4,.1665E-4,0
STARLINK-30246,2023-119P,2026-07-13T03:25:20.416224,15.27606751,.00012593,42.9996,92.9945,260.5052,99.5657,0,U,57615,999,16227,.83337309E-4,.2034E-4,0
STARLINK-30075,2023-119Q,2026-07-12T22:07:46.740000,15.27583300,.00020565,43.0084,93.9453,272.5837,87.4779,0,U,57616,999,16224,.3780393E-4,.778E-5,0
